 [
    {
      "id": 2,
      "name": "Ã…land Islands",
      "flag": "https://restcountries.eu/data/ala.svg",
      "alpha_code_2": "AX",
      "alpha_code_3": "ALA",
      "languages": [
        {
          "iso639_1": "sv",
          "iso639_2": "swe",
          "name": "Swedish",
          "nativeName": "svenska"
        }
      ],
      "emoji": "ğŸ‡¦ğŸ‡½"
    },
    {
      "id": 3,
      "name": "Albania",
      "flag": "https://restcountries.eu/data/alb.svg",
      "alpha_code_2": "AL",
      "alpha_code_3": "ALB",
      "languages": [
        {
          "iso639_1": "sq",
          "iso639_2": "sqi",
          "name": "Albanian",
          "nativeName": "Shqip"
        }
      ],
      "emoji": "ğŸ‡¦ğŸ‡±"
    },
    {
      "id": 4,
      "name": "Algeria",
      "flag": "https://restcountries.eu/data/dza.svg",
      "alpha_code_2": "DZ",
      "alpha_code_3": "DZA",
      "languages": [
        {
          "iso639_1": "ar",
          "iso639_2": "ara",
          "name": "Arabic",
          "nativeName": "Ø§Ù„Ø¹Ø±Ø¨ÙŠØ©"
        }
      ],
      "emoji": "ğŸ‡©ğŸ‡¿"
    },
    {
      "id": 5,
      "name": "American Samoa",
      "flag": "https://restcountries.eu/data/asm.svg",
      "alpha_code_2": "AS",
      "alpha_code_3": "ASM",
      "languages": [
        {
          "iso639_1": "en",
          "iso639_2": "eng",
          "name": "English",
          "nativeName": "English"
        },
        {
          "iso639_1": "sm",
          "iso639_2": "smo",
          "name": "Samoan",
          "nativeName": "gagana fa'a Samoa"
        }
      ],
      "emoji": "ğŸ‡¦ğŸ‡¸"
    },
    {
      "id": 6,
      "name": "Andorra",
      "flag": "https://restcountries.eu/data/and.svg",
      "alpha_code_2": "AD",
      "alpha_code_3": "AND",
      "languages": [
        {
          "iso639_1": "ca",
          "iso639_2": "cat",
          "name": "Catalan",
          "nativeName": "catalÃ "
        }
      ],
      "emoji": "ğŸ‡¦ğŸ‡©"
    },
    {
      "id": 7,
      "name": "Angola",
      "flag": "https://restcountries.eu/data/ago.svg",
      "alpha_code_2": "AO",
      "alpha_code_3": "AGO",
      "languages": [
        {
          "iso639_1": "pt",
          "iso639_2": "por",
          "name": "Portuguese",
          "nativeName": "PortuguÃªs"
        }
      ],
      "emoji": "ğŸ‡¦ğŸ‡´"
    },
    {
      "id": 8,
      "name": "Anguilla",
      "flag": "https://restcountries.eu/data/aia.svg",
      "alpha_code_2": "AI",
      "alpha_code_3": "AIA",
      "languages": [
        {
          "iso639_1": "en",
          "iso639_2": "eng",
          "name": "English",
          "nativeName": "English"
        }
      ],
      "emoji": "ğŸ‡¦ğŸ‡®"
    },
    {
      "id": 10,
      "name": "Antigua and Barbuda",
      "flag": "https://restcountries.eu/data/atg.svg",
      "alpha_code_2": "AG",
      "alpha_code_3": "ATG",
      "languages": [
        {
          "iso639_1": "en",
          "iso639_2": "eng",
          "name": "English",
          "nativeName": "English"
        }
      ],
      "emoji": "ğŸ‡¦ğŸ‡¬"
    },
    {
      "id": 11,
      "name": "Argentina",
      "flag": "https://restcountries.eu/data/arg.svg",
      "alpha_code_2": "AR",
      "alpha_code_3": "ARG",
      "languages": [
        {
          "iso639_1": "es",
          "iso639_2": "spa",
          "name": "Spanish",
          "nativeName": "EspaÃ±ol"
        },
        {
          "iso639_1": "gn",
          "iso639_2": "grn",
          "name": "GuaranÃ­",
          "nativeName": "AvaÃ±e'áº½"
        }
      ],
      "emoji": "ğŸ‡¦ğŸ‡·"
    },
    {
      "id": 12,
      "name": "Armenia",
      "flag": "https://restcountries.eu/data/arm.svg",
      "alpha_code_2": "AM",
      "alpha_code_3": "ARM",
      "languages": [
        {
          "iso639_1": "hy",
          "iso639_2": "hye",
          "name": "Armenian",
          "nativeName": "Õ€Õ¡ÕµÕ¥Ö€Õ¥Õ¶"
        },
        {
          "iso639_1": "ru",
          "iso639_2": "rus",
          "name": "Russian",
          "nativeName": "Ğ ÑƒÑÑĞºĞ¸Ğ¹"
        }
      ],
      "emoji": "ğŸ‡¦ğŸ‡²"
    },
    {
      "id": 13,
      "name": "Aruba",
      "flag": "https://restcountries.eu/data/abw.svg",
      "alpha_code_2": "AW",
      "alpha_code_3": "ABW",
      "languages": [
        {
          "iso639_1": "nl",
          "iso639_2": "nld",
          "name": "Dutch",
          "nativeName": "Nederlands"
        },
        {
          "iso639_1": "pa",
          "iso639_2": "pan",
          "name": "(Eastern) Punjabi",
          "nativeName": "à¨ªà©°à¨œà¨¾à¨¬à©€"
        }
      ],
      "emoji": "ğŸ‡¦ğŸ‡¼"
    },
    {
      "id": 14,
      "name": "Australia",
      "flag": "https://restcountries.eu/data/aus.svg",
      "alpha_code_2": "AU",
      "alpha_code_3": "AUS",
      "languages": [
        {
          "iso639_1": "en",
          "iso639_2": "eng",
          "name": "English",
          "nativeName": "English"
        }
      ],
      "emoji": "ğŸ‡¦ğŸ‡º"
    },
    {
      "id": 18,
      "name": "Bahrain",
      "flag": "https://restcountries.eu/data/bhr.svg",
      "alpha_code_2": "BH",
      "alpha_code_3": "BHR",
      "languages": [
        {
          "iso639_1": "ar",
          "iso639_2": "ara",
          "name": "Arabic",
          "nativeName": "Ø§Ù„Ø¹Ø±Ø¨ÙŠØ©"
        }
      ],
      "emoji": "ğŸ‡§ğŸ‡­"
    },
    {
      "id": 19,
      "name": "Bangladesh",
      "flag": "https://restcountries.eu/data/bgd.svg",
      "alpha_code_2": "BD",
      "alpha_code_3": "BGD",
      "languages": [
        {
          "iso639_1": "bn",
          "iso639_2": "ben",
          "name": "Bengali",
          "nativeName": "à¦¬à¦¾à¦‚à¦²à¦¾"
        }
      ],
      "emoji": "ğŸ‡§ğŸ‡©"
    },
    {
      "id": 20,
      "name": "Barbados",
      "flag": "https://restcountries.eu/data/brb.svg",
      "alpha_code_2": "BB",
      "alpha_code_3": "BRB",
      "languages": [
        {
          "iso639_1": "en",
          "iso639_2": "eng",
          "name": "English",
          "nativeName": "English"
        }
      ],
      "emoji": "ğŸ‡§ğŸ‡§"
    },
    {
      "id": 22,
      "name": "Belgium",
      "flag": "https://restcountries.eu/data/bel.svg",
      "alpha_code_2": "BE",
      "alpha_code_3": "BEL",
      "languages": [
        {
          "iso639_1": "nl",
          "iso639_2": "nld",
          "name": "Dutch",
          "nativeName": "Nederlands"
        },
        {
          "iso639_1": "fr",
          "iso639_2": "fra",
          "name": "French",
          "nativeName": "franÃ§ais"
        },
        {
          "iso639_1": "de",
          "iso639_2": "deu",
          "name": "German",
          "nativeName": "Deutsch"
        }
      ],
      "emoji": "ğŸ‡§ğŸ‡ª"
    },
    {
      "id": 23,
      "name": "Belize",
      "flag": "https://restcountries.eu/data/blz.svg",
      "alpha_code_2": "BZ",
      "alpha_code_3": "BLZ",
      "languages": [
        {
          "iso639_1": "en",
          "iso639_2": "eng",
          "name": "English",
          "nativeName": "English"
        },
        {
          "iso639_1": "es",
          "iso639_2": "spa",
          "name": "Spanish",
          "nativeName": "EspaÃ±ol"
        }
      ],
      "emoji": "ğŸ‡§ğŸ‡¿"
    },
    {
      "id": 33,
      "name": "British Indian Ocean Territory",
      "flag": "https://restcountries.eu/data/iot.svg",
      "alpha_code_2": "IO",
      "alpha_code_3": "IOT",
      "languages": [
        {
          "iso639_1": "en",
          "iso639_2": "eng",
          "name": "English",
          "nativeName": "English"
        }
      ],
      "emoji": "ğŸ‡®ğŸ‡´"
    },
    {
      "id": 34,
      "name": "United States Minor Outlying Islands",
      "flag": "https://restcountries.eu/data/umi.svg",
      "alpha_code_2": "UM",
      "alpha_code_3": "UMI",
      "languages": [
        {
          "iso639_1": "en",
          "iso639_2": "eng",
          "name": "English",
          "nativeName": "English"
        }
      ],
      "emoji": "ğŸ‡ºğŸ‡²"
    },
    {
      "id": 35,
      "name": "Virgin Islands (British)",
      "flag": "https://restcountries.eu/data/vgb.svg",
      "alpha_code_2": "VG",
      "alpha_code_3": "VGB",
      "languages": [
        {
          "iso639_1": "en",
          "iso639_2": "eng",
          "name": "English",
          "nativeName": "English"
        }
      ],
      "emoji": "ğŸ‡»ğŸ‡¬"
    },
    {
      "id": 36,
      "name": "Virgin Islands (U.S.)",
      "flag": "https://restcountries.eu/data/vir.svg",
      "alpha_code_2": "VI",
      "alpha_code_3": "VIR",
      "languages": [
        {
          "iso639_1": "en",
          "iso639_2": "eng",
          "name": "English",
          "nativeName": "English"
        }
      ],
      "emoji": "ğŸ‡»ğŸ‡®"
    },
    {
      "id": 37,
      "name": "Brunei Darussalam",
      "flag": "https://restcountries.eu/data/brn.svg",
      "alpha_code_2": "BN",
      "alpha_code_3": "BRN",
      "languages": [
        {
          "iso639_1": "ms",
          "iso639_2": "msa",
          "name": "Malay",
          "nativeName": "bahasa Melayu"
        }
      ],
      "emoji": "ğŸ‡§ğŸ‡³"
    },
    {
      "id": 38,
      "name": "Bulgaria",
      "flag": "https://restcountries.eu/data/bgr.svg",
      "alpha_code_2": "BG",
      "alpha_code_3": "BGR",
      "languages": [
        {
          "iso639_1": "bg",
          "iso639_2": "bul",
          "name": "Bulgarian",
          "nativeName": "Ğ±ÑŠĞ»Ğ³Ğ°Ñ€ÑĞºĞ¸ ĞµĞ·Ğ¸Ğº"
        }
      ],
      "emoji": "ğŸ‡§ğŸ‡¬"
    },
    {
      "id": 39,
      "name": "Burkina Faso",
      "flag": "https://restcountries.eu/data/bfa.svg",
      "alpha_code_2": "BF",
      "alpha_code_3": "BFA",
      "languages": [
        {
          "iso639_1": "fr",
          "iso639_2": "fra",
          "name": "French",
          "nativeName": "franÃ§ais"
        },
        {
          "iso639_1": "ff",
          "iso639_2": "ful",
          "name": "Fula",
          "nativeName": "Fulfulde"
        }
      ],
      "emoji": "ğŸ‡§ğŸ‡«"
    },
    {
      "id": 40,
      "name": "Burundi",
      "flag": "https://restcountries.eu/data/bdi.svg",
      "alpha_code_2": "BI",
      "alpha_code_3": "BDI",
      "languages": [
        {
          "iso639_1": "fr",
          "iso639_2": "fra",
          "name": "French",
          "nativeName": "franÃ§ais"
        },
        {
          "iso639_1": "rn",
          "iso639_2": "run",
          "name": "Kirundi",
          "nativeName": "Ikirundi"
        }
      ],
      "emoji": "ğŸ‡§ğŸ‡®"
    },
    {
      "id": 41,
      "name": "Cambodia",
      "flag": "https://restcountries.eu/data/khm.svg",
      "alpha_code_2": "KH",
      "alpha_code_3": "KHM",
      "languages": [
        {
          "iso639_1": "km",
          "iso639_2": "khm",
          "name": "Khmer",
          "nativeName": "ááŸ’á˜áŸ‚áš"
        }
      ],
      "emoji": "ğŸ‡°ğŸ‡­"
    },
    {
      "id": 42,
      "name": "Cameroon",
      "flag": "https://restcountries.eu/data/cmr.svg",
      "alpha_code_2": "CM",
      "alpha_code_3": "CMR",
      "languages": [
        {
          "iso639_1": "en",
          "iso639_2": "eng",
          "name": "English",
          "nativeName": "English"
        },
        {
          "iso639_1": "fr",
          "iso639_2": "fra",
          "name": "French",
          "nativeName": "franÃ§ais"
        }
      ],
      "emoji": "ğŸ‡¨ğŸ‡²"
    },
    {
      "id": 43,
      "name": "Canada",
      "flag": "https://restcountries.eu/data/can.svg",
      "alpha_code_2": "CA",
      "alpha_code_3": "CAN",
      "languages": [
        {
          "iso639_1": "en",
          "iso639_2": "eng",
          "name": "English",
          "nativeName": "English"
        },
        {
          "iso639_1": "fr",
          "iso639_2": "fra",
          "name": "French",
          "nativeName": "franÃ§ais"
        }
      ],
      "emoji": "ğŸ‡¨ğŸ‡¦"
    },
    {
      "id": 44,
      "name": "Cabo Verde",
      "flag": "https://restcountries.eu/data/cpv.svg",
      "alpha_code_2": "CV",
      "alpha_code_3": "CPV",
      "languages": [
        {
          "iso639_1": "pt",
          "iso639_2": "por",
          "name": "Portuguese",
          "nativeName": "PortuguÃªs"
        }
      ],
      "emoji": "ğŸ‡¨ğŸ‡»"
    },
    {
      "id": 45,
      "name": "Cayman Islands",
      "flag": "https://restcountries.eu/data/cym.svg",
      "alpha_code_2": "KY",
      "alpha_code_3": "CYM",
      "languages": [
        {
          "iso639_1": "en",
          "iso639_2": "eng",
          "name": "English",
          "nativeName": "English"
        }
      ],
      "emoji": "ğŸ‡°ğŸ‡¾"
    },
    {
      "id": 49,
      "name": "China",
      "flag": "https://restcountries.eu/data/chn.svg",
      "alpha_code_2": "CN",
      "alpha_code_3": "CHN",
      "languages": [
        {
          "iso639_1": "zh",
          "iso639_2": "zho",
          "name": "Chinese",
          "nativeName": "ä¸­æ–‡ (ZhÅngwÃ©n)"
        }
      ],
      "emoji": "ğŸ‡¨ğŸ‡³"
    },
    {
      "id": 50,
      "name": "Christmas Island",
      "flag": "https://restcountries.eu/data/cxr.svg",
      "alpha_code_2": "CX",
      "alpha_code_3": "CXR",
      "languages": [
        {
          "iso639_1": "en",
          "iso639_2": "eng",
          "name": "English",
          "nativeName": "English"
        }
      ],
      "emoji": "ğŸ‡¨ğŸ‡½"
    },
    {
      "id": 51,
      "name": "Cocos (Keeling) Islands",
      "flag": "https://restcountries.eu/data/cck.svg",
      "alpha_code_2": "CC",
      "alpha_code_3": "CCK",
      "languages": [
        {
          "iso639_1": "en",
          "iso639_2": "eng",
          "name": "English",
          "nativeName": "English"
        }
      ],
      "emoji": "ğŸ‡¨ğŸ‡¨"
    },
    {
      "id": 53,
      "name": "Comoros",
      "flag": "https://restcountries.eu/data/com.svg",
      "alpha_code_2": "KM",
      "alpha_code_3": "COM",
      "languages": [
        {
          "iso639_1": "ar",
          "iso639_2": "ara",
          "name": "Arabic",
          "nativeName": "Ø§Ù„Ø¹Ø±Ø¨ÙŠØ©"
        },
        {
          "iso639_1": "fr",
          "iso639_2": "fra",
          "name": "French",
          "nativeName": "franÃ§ais"
        }
      ],
      "emoji": "ğŸ‡°ğŸ‡²"
    },
    {
      "id": 54,
      "name": "Congo",
      "flag": "https://restcountries.eu/data/cog.svg",
      "alpha_code_2": "CG",
      "alpha_code_3": "COG",
      "languages": [
        {
          "iso639_1": "fr",
          "iso639_2": "fra",
          "name": "French",
          "nativeName": "franÃ§ais"
        },
        {
          "iso639_1": "ln",
          "iso639_2": "lin",
          "name": "Lingala",
          "nativeName": "LingÃ¡la"
        }
      ],
      "emoji": "ğŸ‡¨ğŸ‡¬"
    },
    {
      "id": 56,
      "name": "Cook Islands",
      "flag": "https://restcountries.eu/data/cok.svg",
      "alpha_code_2": "CK",
      "alpha_code_3": "COK",
      "languages": [
        {
          "iso639_1": "en",
          "iso639_2": "eng",
          "name": "English",
          "nativeName": "English"
        }
      ],
      "emoji": "ğŸ‡¨ğŸ‡°"
    },
    {
      "id": 57,
      "name": "Costa Rica",
      "flag": "https://restcountries.eu/data/cri.svg",
      "alpha_code_2": "CR",
      "alpha_code_3": "CRI",
      "languages": [
        {
          "iso639_1": "es",
          "iso639_2": "spa",
          "name": "Spanish",
          "nativeName": "EspaÃ±ol"
        }
      ],
      "emoji": "ğŸ‡¨ğŸ‡·"
    },
    {
      "id": 58,
      "name": "Croatia",
      "flag": "https://restcountries.eu/data/hrv.svg",
      "alpha_code_2": "HR",
      "alpha_code_3": "HRV",
      "languages": [
        {
          "iso639_1": "hr",
          "iso639_2": "hrv",
          "name": "Croatian",
          "nativeName": "hrvatski jezik"
        }
      ],
      "emoji": "ğŸ‡­ğŸ‡·"
    },
    {
      "id": 59,
      "name": "Cuba",
      "flag": "https://restcountries.eu/data/cub.svg",
      "alpha_code_2": "CU",
      "alpha_code_3": "CUB",
      "languages": [
        {
          "iso639_1": "es",
          "iso639_2": "spa",
          "name": "Spanish",
          "nativeName": "EspaÃ±ol"
        }
      ],
      "emoji": "ğŸ‡¨ğŸ‡º"
    },
    {
      "id": 60,
      "name": "CuraÃ§ao",
      "flag": "https://restcountries.eu/data/cuw.svg",
      "alpha_code_2": "CW",
      "alpha_code_3": "CUW",
      "languages": [
        {
          "iso639_1": "nl",
          "iso639_2": "nld",
          "name": "Dutch",
          "nativeName": "Nederlands"
        },
        {
          "iso639_1": "pa",
          "iso639_2": "pan",
          "name": "(Eastern) Punjabi",
          "nativeName": "à¨ªà©°à¨œà¨¾à¨¬à©€"
        },
        {
          "iso639_1": "en",
          "iso639_2": "eng",
          "name": "English",
          "nativeName": "English"
        }
      ],
      "emoji": "ğŸ‡¨ğŸ‡¼"
    },
    {
      "id": 61,
      "name": "Cyprus",
      "flag": "https://restcountries.eu/data/cyp.svg",
      "alpha_code_2": "CY",
      "alpha_code_3": "CYP",
      "languages": [
        {
          "iso639_1": "el",
          "iso639_2": "ell",
          "name": "Greek (modern)",
          "nativeName": "ÎµÎ»Î»Î·Î½Î¹ÎºÎ¬"
        },
        {
          "iso639_1": "tr",
          "iso639_2": "tur",
          "name": "Turkish",
          "nativeName": "TÃ¼rkÃ§e"
        },
        {
          "iso639_1": "hy",
          "iso639_2": "hye",
          "name": "Armenian",
          "nativeName": "Õ€Õ¡ÕµÕ¥Ö€Õ¥Õ¶"
        }
      ],
      "emoji": "ğŸ‡¨ğŸ‡¾"
    },
    {
      "id": 63,
      "name": "Denmark",
      "flag": "https://restcountries.eu/data/dnk.svg",
      "alpha_code_2": "DK",
      "alpha_code_3": "DNK",
      "languages": [
        {
          "iso639_1": "da",
          "iso639_2": "dan",
          "name": "Danish",
          "nativeName": "dansk"
        }
      ],
      "emoji": "ğŸ‡©ğŸ‡°"
    },
    {
      "id": 65,
      "name": "Dominica",
      "flag": "https://restcountries.eu/data/dma.svg",
      "alpha_code_2": "DM",
      "alpha_code_3": "DMA",
      "languages": [
        {
          "iso639_1": "en",
          "iso639_2": "eng",
          "name": "English",
          "nativeName": "English"
        }
      ],
      "emoji": "ğŸ‡©ğŸ‡²"
    },
    {
      "id": 62,
      "name": "Czech Republic",
      "flag": "https://restcountries.eu/data/cze.svg",
      "alpha_code_2": "CZ",
      "alpha_code_3": "CZE",
      "languages": [
        {
          "iso639_1": "cs",
          "iso639_2": "ces",
          "name": "Czech",
          "nativeName": "ÄeÅ¡tina"
        },
        {
          "iso639_1": "sk",
          "iso639_2": "slk",
          "name": "Slovak",
          "nativeName": "slovenÄina"
        }
      ],
      "emoji": "ğŸ‡¨ğŸ‡¿"
    }
  ]
